OBJECT_NAME,OBJECT_ID,EPOCH,MEAN_MOTION,ECCENTRICITY,INCLINATION,RA_OF_ASC_NODE,ARG_OF_PERICENTER,MEAN_ANOMALY,EPHEMERIS_TYPE,CLASSIFICATION_TYPE,NORAD_CAT_ID,ELEMENT_SET_NO,REV_AT_EPOCH,BSTAR,MEAN_MOTION_DOT,MEAN_MOTION_DDOT
IONOSFERA-M 3,2025-155A,2026-06-08T12:25:21.717408,14.21485058,.0000496,98.6027,121.6411,174.6897,185.4286,0,U,64876,999,4517,.48655E-4,.64E-6,0
IONOSFERA-M 4,2025-155B,2026-06-08T11:34:11.630784,14.21487198,.0000755,98.6019,121.5240,117.0669,243.0586,0,U,64877,999,4516,.48177E-4,.63E-6,0
MICROCARB,2025-156A,2026-06-08T10:49:04.692000,14.72316861,.0015153,97.9831,236.7439,302.7367,57.2380,0,U,64899,999,4668,.91466E-4,.529E-5,0
CO3D 3,2025-156B,2026-06-08T11:58:35.626944,15.20211424,.000113,97.4326,238.3171,137.6256,222.5066,0,U,64900,999,4821,.22521E-3,.4812E-4,0
CO3D 4,2025-156C,2026-06-08T07:14:27.690432,15.20193509,.000075,97.4332,238.1222,28.9629,331.1648,0,U,64901,999,4818,.18633E-4,.336E-5,0
CO3D 2,2025-156D,2026-06-08T11:10:48.194976,15.20205520,.0001405,97.4324,238.1832,115.2548,244.8833,0,U,64902,999,4820,.19243E-3,.4101E-4,0
CO3D 1,2025-156E,2026-06-08T11:11:00.666816,15.20214993,.0001179,97.4325,238.1836,119.1125,241.0228,0,U,64903,999,4820,.19712E-3,.4204E-4,0
PRSC-S1,2025-164A,2026-06-08T12:18:01.175040,15.06378076,.0007566,41.1315,336.6654,292.8963,67.1052,0,U,65055,999,4712,.33276E-3,.4814E-4,0
SENTINEL-6B,2025-264A,2026-06-08T08:11:30.657120,12.80929779,.0008029,66.0384,153.5514,269.2541,90.7554,0,U,66514,999,2603,.1372E-3,-.29E-6,0
CAS500-3,2025-274F,2026-06-08T08:10:32.848608,14.88300209,.000631,97.7446,87.5931,133.3127,226.8617,0,U,66655,999,2883,.14881E-3,.1322E-4,0
CSG-3,2026-001A,2026-06-08T11:45:49.523328,14.82147918,.0001304,97.8886,343.2180,91.3877,268.7486,0,U,67304,999,2317,.51667E-4,.359E-5,0
PRSC-E03,2026-092A,2026-06-08T10:33:14.844096,15.06626359,.0005075,37.9995,141.2610,303.7954,56.2324,0,U,68835,999,663,.16015E-3,.2311E-4,0
CAS500-2,2026-100AK,2026-06-08T11:10:20.421696,15.20485704,.0011349,97.4082,57.4708,61.5947,298.6431,0,U,69013,999,548,.29298E-3,.6343E-4,0
