IONOSFERA-M 3           
1 64876U 25155A   26159.51761247  .00000064  00000+0  48655-4 0  9996
2 64876  98.6027 121.6411 0000496 174.6897 185.4286 14.21485058 45171
IONOSFERA-M 4           
1 64877U 25155B   26159.48207906  .00000063  00000+0  48177-4 0  9998
2 64877  98.6019 121.5240 0000755 117.0669 243.0586 14.21487198 45168
MICROCARB               
1 64899U 25156A   26159.45074875  .00000529  00000+0  91466-4 0  9993
2 64899  97.9831 236.7439 0015153 302.7367  57.2380 14.72316861 46680
CO3D 3                  
1 64900U 25156B   26159.49902346  .00004812  00000+0  22521-3 0  9997
2 64900  97.4326 238.3171 0001130 137.6256 222.5066 15.20211424 48212
CO3D 4                  
1 64901U 25156C   26159.30170938  .00000336  00000+0  18633-4 0  9999
2 64901  97.4332 238.1222 0000750  28.9629 331.1648 15.20193509 48180
CO3D 2                  
1 64902U 25156D   26159.46583559  .00004101  00000+0  19243-3 0  9995
2 64902  97.4324 238.1832 0001405 115.2548 244.8833 15.20205520 48203
CO3D 1                  
1 64903U 25156E   26159.46597994  .00004204  00000+0  19712-3 0  9999
2 64903  97.4325 238.1836 0001179 119.1125 241.0228 15.20214993 48202
PRSC-S1                 
1 65055U 25164A   26159.51251360  .00004814  00000+0  33276-3 0  9995
2 65055  41.1315 336.6654 0007566 292.8963  67.1052 15.06378076 47122
SENTINEL-6B             
1 66514U 25264A   26159.34132705 -.00000029  00000+0  13720-3 0  9996
2 66514  66.0384 153.5514 0008029 269.2541  90.7554 12.80929779 26038
CAS500-3                
1 66655U 25274F   26159.34065797  .00001322  00000+0  14881-3 0  9994
2 66655  97.7446  87.5931 0006310 133.3127 226.8617 14.88300209 28838
CSG-3                   
1 67304U 26001A   26159.49015652  .00000359  00000+0  51667-4 0  9999
2 67304  97.8886 343.2180 0001304  91.3877 268.7486 14.82147918 23171
PRSC-E03                
1 68835U 26092A   26159.43975514  .00002311  00000+0  16015-3 0  9992
2 68835  37.9995 141.2610 0005075 303.7954  56.2324 15.06626359  6637
CAS500-2                
1 69013U 26100AK  26159.46551414  .00006343  00000+0  29298-3 0  9999
2 69013  97.4082  57.4708 0011349  61.5947 298.6431 15.20485704  5488
